STARLINK-1376
1 25570C 20025AR  21325.10782207  .00002000  00000-0  13402-3 0  3258
2 25570  53.0534 292.7485 0001708  48.7684 247.6201 15.06397620    15
